[{"OBJECT_NAME":"STARLINK-4363","OBJECT_ID":"2022-084AH","EPOCH":"2026-03-09T17:43:23.957472","MEAN_MOTION":15.01259922,"ECCENTRICITY":0.00023325,"INCLINATION":97.6035,"RA_OF_ASC_NODE":130.2478,"ARG_OF_PERICENTER":169.9042,"MEAN_ANOMALY":190.223,"EPHEMERIS_TYPE":0,"CLASSIFICATION_TYPE":"U","NORAD_CAT_ID":53220,"ELEMENT_SET_NO":999,"REV_AT_EPOCH":19984,"BSTAR":2.0360265e-5,"MEAN_MOTION_DOT":2.03e-6,"MEAN_MOTION_DDOT":0},{"OBJECT_NAME":"OBJECT D","OBJECT_ID":"2024-018D","EPOCH":"2026-03-09T19:55:21.548928","MEAN_MOTION":14.55118189,"ECCENTRICITY":0.03718814,"INCLINATION":58.6682,"RA_OF_ASC_NODE":179.3794,"ARG_OF_PERICENTER":4.8806,"MEAN_ANOMALY":355.5692,"EPHEMERIS_TYPE":0,"CLASSIFICATION_TYPE":"U","NORAD_CAT_ID":58852,"ELEMENT_SET_NO":999,"REV_AT_EPOCH":11155,"BSTAR":0.00065583894,"MEAN_MOTION_DOT":7.104e-5,"MEAN_MOTION_DDOT":0}]
